NOAA 15                 
1 25338U 98030A   22247.55868925  .00000108  00000+0  63266-4 0  9991
2 25338  98.6402 276.0437 0011437  69.9328 290.3082 14.26166951264540
NOAA 18                 
1 28654U 05018A   22247.52792374  .00000129  00000+0  93382-4 0  9995
2 28654  98.9437 317.8825 0015306 107.6451 252.6393 14.12771245891237
NOAA 19                 
1 33591U 09005A   22247.53812910  .00000139  00000+0  10016-3 0  9994
2 33591  99.1428 283.3162 0013299 329.6322  30.4077 14.12605056699355
METOP-B                 
1 38771U 12049A   22247.48628472  .00000040  00000+0  38228-4 0  9990
2 38771  98.6891 306.0444 0001370 130.4934  58.8774 14.21504645516963
SARAL                   
1 39086U 13009A   22247.48255615  .00000061  00000+0  39052-4 0  9991
2 39086  98.5493  71.9541 0002073  62.5576 297.5818 14.32059648497794
METOP-C                 
1 43689U 18087A   22247.48625775  .00000037  00000+0  36971-4 0  9994
2 43689  98.6773 306.1645 0003215 151.5393 208.5960 14.21504579198539
ANGELS                  
1 44876U 19092D   22247.49678621  .00002177  00000+0  10950-3 0  9994
2 44876  97.4768  69.9183 0013530  83.7172 276.5602 15.18230554150231
